ONEWEB-0267             
1 48985U 21060U   25266.01145436  .00000029  00000+0  43295-4 0  9995
2 48985  87.8968 282.0195 0001585  92.8600 267.2712 13.16595159204438
ONEWEB-0268             
1 48986U 21060V   25266.05576993  .00000081  00000+0  17802-3 0  9998
2 48986  87.8971 282.0165 0001796  88.5420 271.5917 13.16595789204700
ONEWEB-0269             
1 48987U 21060W   25266.11279077  .00000145  00000+0  34507-3 0  9991
2 48987  87.8962 282.0347 0001956  89.1419 270.9936 13.16594651204482
ONEWEB-0270             
1 48988U 21060X   25265.75020824  .00000092  00000+0  20740-3 0  9990
2 48988  87.8971 282.0794 0001500 102.1482 257.9817 13.16595809204478
ONEWEB-0271             
1 48989U 21060Y   25266.11752723  .00000131  00000+0  30959-3 0  9999
2 48989  87.8971 281.9901 0001557  93.1077 267.0232 13.16595491204524
ONEWEB-0272             
1 48990U 21060Z   25265.60770421 -.00000077  00000+0 -23606-3 0  9991
2 48990  87.8966 282.1192 0001617  86.7603 273.3713 13.16592136204409
ONEWEB-0273             
1 48991U 21060AA  25265.78188869 -.00000054  00000+0 -17572-3 0  9990
2 48991  87.8969 282.0730 0001737  96.8914 263.2414 13.16594275204402
ONEWEB-0274             
1 48992U 21060AB  25266.11120290  .00000076  00000+0  16406-3 0  9990
2 48992  87.8962 282.0377 0001730  79.7090 280.4236 13.16595017204487
ONEWEB-0275             
1 48993U 21060AC  25266.02411859  .00000052  00000+0  10128-3 0  9994
2 48993  87.8970 282.0193 0001748  89.8858 270.2473 13.16594802204409
ONEWEB-0276             
1 48994U 21060AD  25266.05735794  .00000080  00000+0  17542-3 0  9993
2 48994  87.8974 282.0101 0001828  97.4253 262.7086 13.16596282204428
ONEWEB-0277             
1 48995U 21060AE  25265.76594983  .00002912  00000+0  75787-2 0  9994
2 48995  87.8968 282.1006 0001543  89.5115 270.6193 13.16626999204370
ONEWEB-0278             
1 48996U 21060AF  25265.75653427 -.00000029  00000+0 -10866-3 0  9990
2 48996  87.8974 282.0670 0002063  96.1156 264.0210 13.16592444204500
ONEWEB-0279             
1 48997U 21060AG  25265.76445322 -.00000027  00000+0 -10376-3 0  9999
2 48997  87.8973 282.0607 0001516  89.4134 270.7171 13.16593426204436
ONEWEB-0280             
1 48998U 21060AH  25265.55151964  .00000007  00000+0 -15813-4 0  9992
2 48998  87.8969 282.1114 0001759 103.3144 256.8184 13.16593601204346
ONEWEB-0281             
1 48999U 21060AJ  25265.78505640  .00000043  00000+0  79410-4 0  9994
2 48999  87.8968 282.0615 0001859  87.8304 272.3040 13.16593881204441
ONEWEB-0282             
1 49000U 21060AK  25266.11910985  .00000143  00000+0  34099-3 0  9992
2 49000  87.8972 282.0046 0001707  96.2754 263.8572 13.16595446204469
