[{"OBJECT_NAME":"ONEWEB-0267","OBJECT_ID":"2021-060U","EPOCH":"2025-09-23T00:16:29.656704","MEAN_MOTION":13.16595159,"ECCENTRICITY":0.00015852,"INCLINATION":87.8968,"RA_OF_ASC_NODE":282.0195,"ARG_OF_PERICENTER":92.86,"MEAN_ANOMALY":267.2712,"EPHEMERIS_TYPE":0,"CLASSIFICATION_TYPE":"U","NORAD_CAT_ID":48985,"ELEMENT_SET_NO":999,"REV_AT_EPOCH":20443,"BSTAR":4.3294829e-5,"MEAN_MOTION_DOT":2.9e-7,"MEAN_MOTION_DDOT":0},{"OBJECT_NAME":"ONEWEB-0268","OBJECT_ID":"2021-060V","EPOCH":"2025-09-23T01:20:18.521952","MEAN_MOTION":13.16595789,"ECCENTRICITY":0.00017961,"INCLINATION":87.8971,"RA_OF_ASC_NODE":282.0165,"ARG_OF_PERICENTER":88.542,"MEAN_ANOMALY":271.5917,"EPHEMERIS_TYPE":0,"CLASSIFICATION_TYPE":"U","NORAD_CAT_ID":48986,"ELEMENT_SET_NO":999,"REV_AT_EPOCH":20470,"BSTAR":0.00017802332,"MEAN_MOTION_DOT":8.1e-7,"MEAN_MOTION_DDOT":0},{"OBJECT_NAME":"ONEWEB-0269","OBJECT_ID":"2021-060W","EPOCH":"2025-09-23T02:42:25.122528","MEAN_MOTION":13.16594651,"ECCENTRICITY":0.00019566,"INCLINATION":87.8962,"RA_OF_ASC_NODE":282.0347,"ARG_OF_PERICENTER":89.1419,"MEAN_ANOMALY":270.9936,"EPHEMERIS_TYPE":0,"CLASSIFICATION_TYPE":"U","NORAD_CAT_ID":48987,"ELEMENT_SET_NO":999,"REV_AT_EPOCH":20448,"BSTAR":0.00034507227,"MEAN_MOTION_DOT":1.45e-6,"MEAN_MOTION_DDOT":0},{"OBJECT_NAME":"ONEWEB-0270","OBJECT_ID":"2021-060X","EPOCH":"2025-09-22T18:00:17.991936","MEAN_MOTION":13.16595809,"ECCENTRICITY":0.00015004,"INCLINATION":87.8971,"RA_OF_ASC_NODE":282.0794,"ARG_OF_PERICENTER":102.1482,"MEAN_ANOMALY":257.9817,"EPHEMERIS_TYPE":0,"CLASSIFICATION_TYPE":"U","NORAD_CAT_ID":48988,"ELEMENT_SET_NO":999,"REV_AT_EPOCH":20447,"BSTAR":0.00020739649,"MEAN_MOTION_DOT":9.2e-7,"MEAN_MOTION_DDOT":0},{"OBJECT_NAME":"ONEWEB-0271","OBJECT_ID":"2021-060Y","EPOCH":"2025-09-23T02:49:14.352672","MEAN_MOTION":13.16595491,"ECCENTRICITY":0.00015576,"INCLINATION":87.8971,"RA_OF_ASC_NODE":281.9901,"ARG_OF_PERICENTER":93.1077,"MEAN_ANOMALY":267.0232,"EPHEMERIS_TYPE":0,"CLASSIFICATION_TYPE":"U","NORAD_CAT_ID":48989,"ELEMENT_SET_NO":999,"REV_AT_EPOCH":20452,"BSTAR":0.00030959273,"MEAN_MOTION_DOT":1.31e-6,"MEAN_MOTION_DDOT":0},{"OBJECT_NAME":"ONEWEB-0272","OBJECT_ID":"2021-060Z","EPOCH":"2025-09-22T14:35:05.643744","MEAN_MOTION":13.16592136,"ECCENTRICITY":0.00016174,"INCLINATION":87.8966,"RA_OF_ASC_NODE":282.1192,"ARG_OF_PERICENTER":86.7603,"MEAN_ANOMALY":273.3713,"EPHEMERIS_TYPE":0,"CLASSIFICATION_TYPE":"U","NORAD_CAT_ID":48990,"ELEMENT_SET_NO":999,"REV_AT_EPOCH":20440,"BSTAR":-0.0002360636,"MEAN_MOTION_DOT":-7.7e-7,"MEAN_MOTION_DDOT":0},{"OBJECT_NAME":"ONEWEB-0273","OBJECT_ID":"2021-060AA","EPOCH":"2025-09-22T18:45:55.182816","MEAN_MOTION":13.16594275,"ECCENTRICITY":0.00017379,"INCLINATION":87.8969,"RA_OF_ASC_NODE":282.073,"ARG_OF_PERICENTER":96.8914,"MEAN_ANOMALY":263.2414,"EPHEMERIS_TYPE":0,"CLASSIFICATION_TYPE":"U","NORAD_CAT_ID":48991,"ELEMENT_SET_NO":999,"REV_AT_EPOCH":20440,"BSTAR":-0.00017572321,"MEAN_MOTION_DOT":-5.4e-7,"MEAN_MOTION_DDOT":0},{"OBJECT_NAME":"ONEWEB-0274","OBJECT_ID":"2021-060AB","EPOCH":"2025-09-23T02:40:07.930560","MEAN_MOTION":13.16595017,"ECCENTRICITY":0.00017304,"INCLINATION":87.8962,"RA_OF_ASC_NODE":282.0377,"ARG_OF_PERICENTER":79.709,"MEAN_ANOMALY":280.4236,"EPHEMERIS_TYPE":0,"CLASSIFICATION_TYPE":"U","NORAD_CAT_ID":48992,"ELEMENT_SET_NO":999,"REV_AT_EPOCH":20448,"BSTAR":0.00016405665,"MEAN_MOTION_DOT":7.6e-7,"MEAN_MOTION_DDOT":0},{"OBJECT_NAME":"ONEWEB-0275","OBJECT_ID":"2021-060AC","EPOCH":"2025-09-23T00:34:43.846176","MEAN_MOTION":13.16594802,"ECCENTRICITY":0.00017487,"INCLINATION":87.897,"RA_OF_ASC_NODE":282.0193,"ARG_OF_PERICENTER":89.8858,"MEAN_ANOMALY":270.2473,"EPHEMERIS_TYPE":0,"CLASSIFICATION_TYPE":"U","NORAD_CAT_ID":48993,"ELEMENT_SET_NO":999,"REV_AT_EPOCH":20440,"BSTAR":0.00010127935,"MEAN_MOTION_DOT":5.2e-7,"MEAN_MOTION_DDOT":0},{"OBJECT_NAME":"ONEWEB-0276","OBJECT_ID":"2021-060AD","EPOCH":"2025-09-23T01:22:35.726016","MEAN_MOTION":13.16596282,"ECCENTRICITY":0.00018282,"INCLINATION":87.8974,"RA_OF_ASC_NODE":282.0101,"ARG_OF_PERICENTER":97.4253,"MEAN_ANOMALY":262.7086,"EPHEMERIS_TYPE":0,"CLASSIFICATION_TYPE":"U","NORAD_CAT_ID":48994,"ELEMENT_SET_NO":999,"REV_AT_EPOCH":20442,"BSTAR":0.00017541734,"MEAN_MOTION_DOT":8.0e-7,"MEAN_MOTION_DDOT":0},{"OBJECT_NAME":"ONEWEB-0277","OBJECT_ID":"2021-060AE","EPOCH":"2025-09-22T18:22:58.065312","MEAN_MOTION":13.16626999,"ECCENTRICITY":0.00015435,"INCLINATION":87.8968,"RA_OF_ASC_NODE":282.1006,"ARG_OF_PERICENTER":89.5115,"MEAN_ANOMALY":270.6193,"EPHEMERIS_TYPE":0,"CLASSIFICATION_TYPE":"U","NORAD_CAT_ID":48995,"ELEMENT_SET_NO":999,"REV_AT_EPOCH":20437,"BSTAR":0.0075787236,"MEAN_MOTION_DOT":2.912e-5,"MEAN_MOTION_DDOT":0},{"OBJECT_NAME":"ONEWEB-0278","OBJECT_ID":"2021-060AF","EPOCH":"2025-09-22T18:09:24.560928","MEAN_MOTION":13.16592444,"ECCENTRICITY":0.00020636,"INCLINATION":87.8974,"RA_OF_ASC_NODE":282.067,"ARG_OF_PERICENTER":96.1156,"MEAN_ANOMALY":264.021,"EPHEMERIS_TYPE":0,"CLASSIFICATION_TYPE":"U","NORAD_CAT_ID":48996,"ELEMENT_SET_NO":999,"REV_AT_EPOCH":20450,"BSTAR":-0.00010865764,"MEAN_MOTION_DOT":-2.9e-7,"MEAN_MOTION_DDOT":0},{"OBJECT_NAME":"ONEWEB-0279","OBJECT_ID":"2021-060AG","EPOCH":"2025-09-22T18:20:48.758208","MEAN_MOTION":13.16593426,"ECCENTRICITY":0.00015165,"INCLINATION":87.8973,"RA_OF_ASC_NODE":282.0607,"ARG_OF_PERICENTER":89.4134,"MEAN_ANOMALY":270.7171,"EPHEMERIS_TYPE":0,"CLASSIFICATION_TYPE":"U","NORAD_CAT_ID":48997,"ELEMENT_SET_NO":999,"REV_AT_EPOCH":20443,"BSTAR":-0.00010376129,"MEAN_MOTION_DOT":-2.7e-7,"MEAN_MOTION_DDOT":0},{"OBJECT_NAME":"ONEWEB-0280","OBJECT_ID":"2021-060AH","EPOCH":"2025-09-22T13:14:11.296896","MEAN_MOTION":13.16593601,"ECCENTRICITY":0.00017593,"INCLINATION":87.8969,"RA_OF_ASC_NODE":282.1114,"ARG_OF_PERICENTER":103.3144,"MEAN_ANOMALY":256.8184,"EPHEMERIS_TYPE":0,"CLASSIFICATION_TYPE":"U","NORAD_CAT_ID":48998,"ELEMENT_SET_NO":999,"REV_AT_EPOCH":20434,"BSTAR":-1.5812717e-5,"MEAN_MOTION_DOT":7.0e-8,"MEAN_MOTION_DDOT":0},{"OBJECT_NAME":"ONEWEB-0281","OBJECT_ID":"2021-060AJ","EPOCH":"2025-09-22T18:50:28.872960","MEAN_MOTION":13.16593881,"ECCENTRICITY":0.00018594,"INCLINATION":87.8968,"RA_OF_ASC_NODE":282.0615,"ARG_OF_PERICENTER":87.8304,"MEAN_ANOMALY":272.304,"EPHEMERIS_TYPE":0,"CLASSIFICATION_TYPE":"U","NORAD_CAT_ID":48999,"ELEMENT_SET_NO":999,"REV_AT_EPOCH":20444,"BSTAR":7.9410397e-5,"MEAN_MOTION_DOT":4.3e-7,"MEAN_MOTION_DDOT":0},{"OBJECT_NAME":"ONEWEB-0282","OBJECT_ID":"2021-060AK","EPOCH":"2025-09-23T02:51:31.091040","MEAN_MOTION":13.16595446,"ECCENTRICITY":0.00017075,"INCLINATION":87.8972,"RA_OF_ASC_NODE":282.0046,"ARG_OF_PERICENTER":96.2754,"MEAN_ANOMALY":263.8572,"EPHEMERIS_TYPE":0,"CLASSIFICATION_TYPE":"U","NORAD_CAT_ID":49000,"ELEMENT_SET_NO":999,"REV_AT_EPOCH":20446,"BSTAR":0.0003409859,"MEAN_MOTION_DOT":1.43e-6,"MEAN_MOTION_DDOT":0}]
